[
    {
        "Altitude(m)": 554271.1483244898,
        "Argument of Periapsis(deg)": 0.026491964442854003,
        "Eccentricity": 0.0,
        "Inclination(deg)": 53.0,
        "Latitude(deg)": 24.581720279791213,
        "Longitude(deg)": 131.8650205806743,
        "Mean Anomaly(deg)": 31.275571470310307,
        "RAAN(deg)": 214.96057347411204,
        "Satellite Name": "Starlink Shell 1 967",
        "Satellite Number": 967,
        "Semi-Major Axis(m)": 6931778.249405717,
        "Time(s)": 760
    },
    {
        "Altitude(m)": 554329.2380342722,
        "Argument of Periapsis(deg)": 0.02684054292236524,
        "Eccentricity": 0.0,
        "Inclination(deg)": 53.0,
        "Latitude(deg)": 25.053792067249976,
        "Longitude(deg)": 132.28054325242056,
        "Mean Anomaly(deg)": 31.90240267386703,
        "RAAN(deg)": 214.9600547040346,
        "Satellite Name": "Starlink Shell 1 967",
        "Satellite Number": 967,
        "Semi-Major Axis(m)": 6931778.249405717,
        "Time(s)": 770
    },
    {
        "Altitude(m)": 554388.9391910227,
        "Argument of Periapsis(deg)": 0.027189121401876473,
        "Eccentricity": 0.0,
        "Inclination(deg)": 53.0,
        "Latitude(deg)": 25.52441925160032,
        "Longitude(deg)": 132.69957076362834,
        "Mean Anomaly(deg)": 32.5292338774237,
        "RAAN(deg)": 214.95953593395714,
        "Satellite Name": "Starlink Shell 1 967",
        "Satellite Number": 967,
        "Semi-Major Axis(m)": 6931778.249405717,
        "Time(s)": 780
    },
    {
        "Altitude(m)": 554450.2029983149,
        "Argument of Periapsis(deg)": 0.02753769988138771,
        "Eccentricity": 0.0,
        "Inclination(deg)": 53.0,
        "Latitude(deg)": 25.99356001494888,
        "Longitude(deg)": 133.1221953382121,
        "Mean Anomaly(deg)": 33.1560650809804,
        "RAAN(deg)": 214.95901716387965,
        "Satellite Name": "Starlink Shell 1 967",
        "Satellite Number": 967,
        "Semi-Major Axis(m)": 6931778.249405717,
        "Time(s)": 790
    },
    {
        "Altitude(m)": 554512.9800529213,
        "Argument of Periapsis(deg)": 0.02788627836089895,
        "Eccentricity": 0.0,
        "Inclination(deg)": 53.0,
        "Latitude(deg)": 26.46117165841117,
        "Longitude(deg)": 133.54850998183102,
        "Mean Anomaly(deg)": 33.782896284537216,
        "RAAN(deg)": 214.9584983938022,
        "Satellite Name": "Starlink Shell 1 967",
        "Satellite Number": 967,
        "Semi-Major Axis(m)": 6931778.249405717,
        "Time(s)": 800
    },
    {
        "Altitude(m)": 554577.2203713763,
        "Argument of Periapsis(deg)": 0.02823485684041019,
        "Eccentricity": 0.0,
        "Inclination(deg)": 53.0,
        "Latitude(deg)": 26.927210574594632,
        "Longitude(deg)": 133.97860899790956,
        "Mean Anomaly(deg)": 34.409727488093885,
        "RAAN(deg)": 214.95797962372473,
        "Satellite Name": "Starlink Shell 1 967",
        "Satellite Number": 967,
        "Semi-Major Axis(m)": 6931778.249405717,
        "Time(s)": 810
    },
    {
        "Altitude(m)": 554642.8734167966,
        "Argument of Periapsis(deg)": 0.028583435319921423,
        "Eccentricity": 0.0,
        "Inclination(deg)": 53.0,
        "Latitude(deg)": 27.39163221956162,
        "Longitude(deg)": 134.4125885016861,
        "Mean Anomaly(deg)": 35.03655869165053,
        "RAAN(deg)": 214.95746085364723,
        "Satellite Name": "Starlink Shell 1 967",
        "Satellite Number": 967,
        "Semi-Major Axis(m)": 6931778.249405717,
        "Time(s)": 820
    },
    {
        "Altitude(m)": 554709.888125934,
        "Argument of Periapsis(deg)": 0.028932013799432665,
        "Eccentricity": 0.0,
        "Inclination(deg)": 53.0,
        "Latitude(deg)": 27.854391084278518,
        "Longitude(deg)": 134.85054541922523,
        "Mean Anomaly(deg)": 35.6633898952073,
        "RAAN(deg)": 214.95694208356977,
        "Satellite Name": "Starlink Shell 1 967",
        "Satellite Number": 967,
        "Semi-Major Axis(m)": 6931778.249405717,
        "Time(s)": 830
    },
    {
        "Altitude(m)": 554778.2129364504,
        "Argument of Periapsis(deg)": 0.029280592278943897,
        "Eccentricity": 0.0,
        "Inclination(deg)": 53.0,
        "Latitude(deg)": 28.315440665560526,
        "Longitude(deg)": 135.29257799694082,
        "Mean Anomaly(deg)": 36.29022109876408,
        "RAAN(deg)": 214.95642331349228,
        "Satellite Name": "Starlink Shell 1 967",
        "Satellite Number": 967,
        "Semi-Major Axis(m)": 6931778.249405717,
        "Time(s)": 840
    },
    {
        "Altitude(m)": 554847.7958143931,
        "Argument of Periapsis(deg)": 0.029629170758455132,
        "Eccentricity": 0.0,
        "Inclination(deg)": 53.0,
        "Latitude(deg)": 28.77473343652594,
        "Longitude(deg)": 135.73878630853793,
        "Mean Anomaly(deg)": 36.91705230232072,
        "RAAN(deg)": 214.95590454341482,
        "Satellite Name": "Starlink Shell 1 967",
        "Satellite Number": 967,
        "Semi-Major Axis(m)": 6931778.249405717,
        "Time(s)": 850
    },
    {
        "Altitude(m)": 554918.5842818619,
        "Argument of Periapsis(deg)": 0.02997774923796637,
        "Eccentricity": 0.0,
        "Inclination(deg)": 53.0,
        "Latitude(deg)": 29.232220816578515,
        "Longitude(deg)": 136.1892710781727,
        "Mean Anomaly(deg)": 37.54388350587749,
        "RAAN(deg)": 214.95538577333733,
        "Satellite Name": "Starlink Shell 1 967",
        "Satellite Number": 967,
        "Semi-Major Axis(m)": 6931778.249405717,
        "Time(s)": 860
    },
    {
        "Altitude(m)": 554990.5254448697,
        "Argument of Periapsis(deg)": 0.030326327717477602,
        "Eccentricity": 0.0,
        "Inclination(deg)": 53.0,
        "Latitude(deg)": 29.687853140931498,
        "Longitude(deg)": 136.64413502201003,
        "Mean Anomaly(deg)": 38.170714709434215,
        "RAAN(deg)": 214.9548670032599,
        "Satellite Name": "Starlink Shell 1 967",
        "Satellite Number": 967,
        "Semi-Major Axis(m)": 6931778.249405717,
        "Time(s)": 870
    },
    {
        "Altitude(m)": 555063.5660213405,
        "Argument of Periapsis(deg)": 0.030674906196988847,
        "Eccentricity": 0.0,
        "Inclination(deg)": 53.0,
        "Latitude(deg)": 30.141579629703955,
        "Longitude(deg)": 137.10348166500327,
        "Mean Anomaly(deg)": 38.797545912990905,
        "RAAN(deg)": 214.95434823318237,
        "Satellite Name": "Starlink Shell 1 967",
        "Satellite Number": 967,
        "Semi-Major Axis(m)": 6931778.249405717,
        "Time(s)": 880
    },
    {
        "Altitude(m)": 555137.6523692651,
        "Argument of Periapsis(deg)": 0.031023484676500086,
        "Eccentricity": 0.0,
        "Inclination(deg)": 53.0,
        "Latitude(deg)": 30.593348356610875,
        "Longitude(deg)": 137.56741583504547,
        "Mean Anomaly(deg)": 39.42437711654758,
        "RAAN(deg)": 214.95382946310494,
        "Satellite Name": "Starlink Shell 1 967",
        "Satellite Number": 967,
        "Semi-Major Axis(m)": 6931778.249405717,
        "Time(s)": 890
    },
    {
        "Altitude(m)": 555212.7305150114,
        "Argument of Periapsis(deg)": 0.03137206315601132,
        "Eccentricity": 0.0,
        "Inclination(deg)": 53.0,
        "Latitude(deg)": 31.043106217280965,
        "Longitude(deg)": 138.03604415322326,
        "Mean Anomaly(deg)": 40.0512083201044,
        "RAAN(deg)": 214.95331069302748,
        "Satellite Name": "Starlink Shell 1 967",
        "Satellite Number": 967,
        "Semi-Major Axis(m)": 6931778.249405717,
        "Time(s)": 900
    },
    {
        "Altitude(m)": 555288.7461817265,
        "Argument of Periapsis(deg)": 0.03172064163552255,
        "Eccentricity": 0.0,
        "Inclination(deg)": 53.0,
        "Latitude(deg)": 31.49079889723916,
        "Longitude(deg)": 138.5094740069834,
        "Mean Anomaly(deg)": 40.6780395236611,
        "RAAN(deg)": 214.95279192294998,
        "Satellite Name": "Starlink Shell 1 967",
        "Satellite Number": 967,
        "Semi-Major Axis(m)": 6931778.249405717,
        "Time(s)": 910
    },
    {
        "Altitude(m)": 555365.6448178454,
        "Argument of Periapsis(deg)": 0.0320692201150338,
        "Eccentricity": 0.0,
        "Inclination(deg)": 53.0,
        "Latitude(deg)": 31.936370839594577,
        "Longitude(deg)": 138.98781403163122,
        "Mean Anomaly(deg)": 41.30487072721772,
        "RAAN(deg)": 214.95227315287252,
        "Satellite Name": "Starlink Shell 1 967",
        "Satellite Number": 967,
        "Semi-Major Axis(m)": 6931778.249405717,
        "Time(s)": 920
    },
    {
        "Altitude(m)": 555443.3716257198,
        "Argument of Periapsis(deg)": 0.032417798594545036,
        "Eccentricity": 0.0,
        "Inclination(deg)": 53.0,
        "Latitude(deg)": 32.37976521247907,
        "Longitude(deg)": 139.4711745869296,
        "Mean Anomaly(deg)": 41.93170193077449,
        "RAAN(deg)": 214.95175438279506,
        "Satellite Name": "Starlink Shell 1 967",
        "Satellite Number": 967,
        "Semi-Major Axis(m)": 6931778.249405717,
        "Time(s)": 930
    },
    {
        "Altitude(m)": 555521.8715902843,
        "Argument of Periapsis(deg)": 0.03276637707405627,
        "Eccentricity": 0.0,
        "Inclination(deg)": 53.0,
        "Latitude(deg)": 32.820923876293634,
        "Longitude(deg)": 139.95966671555493,
        "Mean Anomaly(deg)": 42.558533134331185,
        "RAAN(deg)": 214.95123561271757,
        "Satellite Name": "Starlink Shell 1 967",
        "Satellite Number": 967,
        "Semi-Major Axis(m)": 6931778.249405717,
        "Time(s)": 940
    }
]